{
    "type": "FeatureCollection",
    "features": [
        {
            "type": "Feature",
            "properties": {},
            "geometry": {
                "type": "Polygon",
                "coordinates": [
                    [
                        [113.246034, -7.193495],
                        [113.241446, -7.19487],
                        [113.244374, -7.199537],
                        [113.248903, -7.200757],
                        [113.252143, -7.193843],
                        [113.246034, -7.193495]
                    ]
                ]
            }
        }
    ]
}
